{
 "type": "Feature",
 "properties": {
  "name": "devils_island"
 },
 "geometry": {
  "type": "Polygon",
  "coordinates": [
   [
    [
     -90.73747146646406,
     47.07777984911537
    ],
    [
     -90.73744471982181,
     47.077467687632854
    ],
    [
     -90.737409058513,
     47.07735620496631
    ],
    [
     -90.73738223341157,
     47.07705303393586
    ],
    [
     -90.73735999263951,
     47.076972736070715
    ],
    [
     -90.73735104338117,
     47.07675873148231
    ],
    [
     -90.73734211113153,
     47.07669624899791
    ],
    [
     -90.73734210986011,
     47.07660266225749
    ],
    [
     -90.73728866880194,
     47.076161218671416
    ],
    [
     -90.73718164098584,
     47.07585797518078
    ],
    [
     -90.73707457854808,
     47.075550277206595
    ],
    [
     -90.73684719994242,
     47.075193589746036
    ],
    [
     -90.73686499112571,
     47.07509543527313
    ],
    [
     -90.73688728668122,
     47.074836823121416
    ],
    [
     -90.73687841920145,
     47.07471641005377
    ],
    [
     -90.7369095911114,
     47.07465404416878
    ],
    [
     -90.73695862388374,
     47.07451134986767
    ],
    [
     -90.73700325395946,
     47.074373066226975
    ],
    [
     -90.73705679105689,
     47.07406093035853
    ],
    [
     -90.7371102899418,
     47.07374434035531
    ],
    [
     -90.73708347286875,
     47.07343220394015
    ],
    [
     -90.7370612195301,
     47.07309775913696
    ],
    [
     -90.73703889074969,
     47.072763391275814
    ],
    [
     -90.7369318783455,
     47.07246016769438
    ],
    [
     -90.73682490920062,
     47.072152489426635
    ],
    [
     -90.7366866585674,
     47.07190271994054
    ],
    [
     -90.73656178618523,
     47.07169764932512
    ],
    [
     -90.73639234434621,
     47.071488037695296
    ],
    [
     -90.73622290752431,
     47.07127850092147
    ],
    [
     -90.73612033205005,
     47.07101090516649
    ],
    [
     -90.73609358523564,
     47.07093064546306
    ],
    [
     -90.73595534799237,
     47.070596217297826
    ],
    [
     -90.7358706500104,
     47.07040894051909
    ],
    [
     -90.73574581046526,
     47.070159241127705
    ],
    [
     -90.73579931440496,
     47.06984267592519
    ],
    [
     -90.7358572537905,
     47.06952608424633
    ],
    [
     -90.7358572894396,
     47.06935215610629
    ],
    [
     -90.73590629138351,
     47.06908456475359
    ],
    [
     -90.73595093572774,
     47.068817076957636
    ],
    [
     -90.73606240198242,
     47.06856290116698
    ],
    [
     -90.73617386656008,
     47.06830872653652
    ],
    [
     -90.73621846468544,
     47.068045624480554
    ],
    [
     -90.73628533326217,
     47.06785835140925
    ],
    [
     -90.73638345699396,
     47.0674793569837
    ],
    [
     -90.73641911181308,
     47.06728315179862
    ],
    [
     -90.73642802312402,
     47.066904065067774
    ],
    [
     -90.73643693607276,
     47.066525055400746
    ],
    [
     -90.73639682230169,
     47.06621297399565
    ],
    [
     -90.73630760144458,
     47.06587403024509
    ],
    [
     -90.73621398767652,
     47.06553066129524
    ],
    [
     -90.73607130290661,
     47.06518285645737
    ],
    [
     -90.73583939764072,
     47.06480384291438
    ],
    [
     -90.73561197419215,
     47.064429332746705
    ],
    [
     -90.73544258484664,
     47.06421974942796
    ],
    [
     -90.73528201414139,
     47.06405028322736
    ],
    [
     -90.73511701026696,
     47.06388084573991
    ],
    [
     -90.7350011273567,
     47.06352411718226
    ],
    [
     -90.73492082627185,
     47.06331003129093
    ],
    [
     -90.73484504172121,
     47.06309599161216
    ],
    [
     -90.73466224216949,
     47.06280615444483
    ],
    [
     -90.73447936920765,
     47.06251631911716
    ],
    [
     -90.73434565924035,
     47.062364729406916
    ],
    [
     -90.73415836087872,
     47.06206593965904
    ],
    [
     -90.73390420200933,
     47.061802923198464
    ],
    [
     -90.7336499695193,
     47.06153983376715
    ],
    [
     -90.73333339026819,
     47.061312413233466
    ],
    [
     -90.7330167818388,
     47.06108053789721
    ],
    [
     -90.732784945106,
     47.060955639314855
    ],
    [
     -90.73255307712803,
     47.060826359902094
    ],
    [
     -90.73232120231602,
     47.060714900868746
    ],
    [
     -90.7320134771128,
     47.060500863559724
    ],
    [
     -90.73171031272499,
     47.060282342214336
    ],
    [
     -90.73150515582165,
     47.06014413066898
    ],
    [
     -90.73113506836064,
     47.05995239451468
    ],
    [
     -90.73076494731484,
     47.05976511315592
    ],
    [
     -90.73035025602259,
     47.05962682288245
    ],
    [
     -90.72994005084288,
     47.05948412224033
    ],
    [
     -90.72969481045489,
     47.059399401594945
    ],
    [
     -90.72944949511269,
     47.05931468104849
    ],
    [
     -90.72925781093737,
     47.05920326103171
    ],
    [
     -90.72895457673351,
     47.05911408118971
    ],
    [
     -90.72865138234864,
     47.0590293554263
    ],
    [
     -90.72841498332545,
     47.05894903171823
    ],
    [
     -90.72812516102992,
     47.05889109829293
    ],
    [
     -90.72781746880862,
     47.05885540368015
    ],
    [
     -90.72750982173768,
     47.058815253036336
    ],
    [
     -90.72721108518088,
     47.058779648643394
    ],
    [
     -90.72690783588166,
     47.05874392355753
    ],
    [
     -90.72660463368418,
     47.05870381671157
    ],
    [
     -90.72629695905432,
     47.05871719662203
    ],
    [
     -90.72598928636813,
     47.05873057569855
    ],
    [
     -90.72568161562565,
     47.05874395394115
    ],
    [
     -90.72538286541028,
     47.05879298883811
    ],
    [
     -90.72508408103714,
     47.05883756826731
    ],
    [
     -90.72478533305015,
     47.05888660167828
    ],
    [
     -90.7243616984022,
     47.0590114879555
    ],
    [
     -90.72393809940421,
     47.05914082771169
    ],
    [
     -90.72363931341401,
     47.059145234631224
    ],
    [
     -90.72334053131299,
     47.059149714998796
    ],
    [
     -90.72304178942744,
     47.05919874411236
    ],
    [
     -90.72274305051108,
     47.05924784672316
    ],
    [
     -90.72244431080746,
     47.059296874355425
    ],
    [
     -90.72235513410708,
     47.05932364529923
    ],
    [
     -90.72198945680188,
     47.05936819219252
    ],
    [
     -90.72162378339655,
     47.05941281218166
    ],
    [
     -90.7212626233266,
     47.05945740270544
    ],
    [
     -90.72089695393593,
     47.05950202042483
    ],
    [
     -90.72082560065918,
     47.05951984267252
    ],
    [
     -90.72046001947258,
     47.059635738704564
    ],
    [
     -90.72008988584683,
     47.05975619163644
    ],
    [
     -90.71972426171826,
     47.05987654114585
    ],
    [
     -90.71948346875074,
     47.05998355966005
    ],
    [
     -90.71912223386614,
     47.06018867491871
    ],
    [
     -90.71875659779955,
     47.06039827246288
    ],
    [
     -90.71839539300242,
     47.06060784197317
    ],
    [
     -90.71811446715309,
     47.060817429167685
    ],
    [
     -90.71781570278782,
     47.06108497052893
    ],
    [
     -90.71752144621392,
     47.06135248433981
    ],
    [
     -90.7173118499398,
     47.061633429791684
    ],
    [
     -90.71710676187979,
     47.061914348251285
    ],
    [
     -90.71694173533515,
     47.06219531488954
    ],
    [
     -90.71680801643403,
     47.06251187810296
    ],
    [
     -90.71666978365711,
     47.06282847127163
    ],
    [
     -90.71663410503662,
     47.06294438306557
    ],
    [
     -90.7164602065947,
     47.063185237800354
    ],
    [
     -90.7163264215014,
     47.06348398556638
    ],
    [
     -90.71619710159746,
     47.06378716245388
    ],
    [
     -90.71616141144543,
     47.063983421863355
    ],
    [
     -90.71605881312472,
     47.06417957926829
    ],
    [
     -90.71595625406184,
     47.064340093680265
    ],
    [
     -90.71582700717934,
     47.064643349008875
    ],
    [
     -90.71569321072492,
     47.064942104591246
    ],
    [
     -90.71563968015177,
     47.06525870361033
    ],
    [
     -90.71558619245204,
     47.06557084876529
    ],
    [
     -90.71559511130833,
     47.06580270414272
    ],
    [
     -90.7156084661017,
     47.06603460720168
    ],
    [
     -90.71562629607686,
     47.06615940082062
    ],
    [
     -90.71564412806754,
     47.06628426898987
    ],
    [
     -90.71567089448378,
     47.06638687804812
    ],
    [
     -90.71564860014975,
     47.06649387724234
    ],
    [
     -90.71559955545878,
     47.06689964504062
    ],
    [
     -90.71562185674303,
     47.06713149735751
    ],
    [
     -90.71556389324654,
     47.06751051728667
    ],
    [
     -90.715546089603,
     47.06780930951445
    ],
    [
     -90.71547471487237,
     47.06796978914227
    ],
    [
     -90.71542117632238,
     47.06828640685854
    ],
    [
     -90.7153676806876,
     47.06859857044623
    ],
    [
     -90.71538106121079,
     47.06897760246688
    ],
    [
     -90.71538997134434,
     47.06904445871997
    ],
    [
     -90.71538554745399,
     47.069138133139866
    ],
    [
     -90.71540785137671,
     47.06940118669917
    ],
    [
     -90.71543012379352,
     47.06965986018395
    ],
    [
     -90.71544795207333,
     47.06975347142659
    ],
    [
     -90.71555494388248,
     47.0700611540436
    ],
    [
     -90.71566201599744,
     47.07036883792425
    ],
    [
     -90.71584482283878,
     47.070658673387484
    ],
    [
     -90.71602763408653,
     47.07094851019249
    ],
    [
     -90.71608561352681,
     47.071010904205586
    ],
    [
     -90.71612129760214,
     47.07142561193668
    ],
    [
     -90.7161881420062,
     47.07167087233268
    ],
    [
     -90.71622385984594,
     47.07191610512225
    ],
    [
     -90.7162907564842,
     47.07211680644643
    ],
    [
     -90.7162417111179,
     47.0723798744478
    ],
    [
     -90.71618815207307,
     47.07264297191802
    ],
    [
     -90.7161792089567,
     47.07277671231288
    ],
    [
     -90.7162060213458,
     47.07308884871438
    ],
    [
     -90.7162327903705,
     47.07340544350586
    ],
    [
     -90.71633980556352,
     47.07371314734308
    ],
    [
     -90.71644682326274,
     47.07402085292841
    ],
    [
     -90.71648691167944,
     47.074083287819874
    ],
    [
     -90.71652703238688,
     47.07422147939522
    ],
    [
     -90.7166162769247,
     47.074453392924646
    ],
    [
     -90.71670093018396,
     47.07468526181364
    ],
    [
     -90.71682138886646,
     47.07487694973083
    ],
    [
     -90.7169462089828,
     47.075068685303094
    ],
    [
     -90.71703092611638,
     47.07524707981267
    ],
    [
     -90.71718698887206,
     47.075483408304905
    ],
    [
     -90.71734309848611,
     47.075715280978436
    ],
    [
     -90.71754818581157,
     47.07592931996016
    ],
    [
     -90.71775327713284,
     47.07614335946006
    ],
    [
     -90.7178202176224,
     47.076286067927
    ],
    [
     -90.71797177928892,
     47.07663384067068
    ],
    [
     -90.71812786065524,
     47.07698166162159
    ],
    [
     -90.71827951034284,
     47.07732951245149
    ],
    [
     -90.71845784919684,
     47.077574697104644
    ],
    [
     -90.71852024456045,
     47.07764160130787
    ],
    [
     -90.71863172236162,
     47.07796712724474
    ],
    [
     -90.71881454088806,
     47.078257001352796
    ],
    [
     -90.71899736195223,
     47.07854680253621
    ],
    [
     -90.71925159562184,
     47.07880986356167
    ],
    [
     -90.71950575943171,
     47.079073000114036
    ],
    [
     -90.71970193639184,
     47.07921564908213
    ],
    [
     -90.71990263230666,
     47.07935834408414
    ],
    [
     -90.7200809893807,
     47.07950103059857
    ],
    [
     -90.72024149688976,
     47.07975079155391
    ],
    [
     -90.72040643366188,
     47.08000936505207
    ],
    [
     -90.72066062522096,
     47.0802725051397
    ],
    [
     -90.72091482100637,
     47.080535571731915
    ],
    [
     -90.72123137167287,
     47.080767421076985
    ],
    [
     -90.72154797474387,
     47.080994887693514
    ],
    [
     -90.7216238374214,
     47.08103942573832
    ],
    [
     -90.72189139058224,
     47.08123563098515
    ],
    [
     -90.7221767225996,
     47.081534382441546
    ],
    [
     -90.7224933484059,
     47.08176184978896
    ],
    [
     -90.72280990178533,
     47.08198924346957
    ],
    [
     -90.72302838626649,
     47.08210070440618
    ],
    [
     -90.72334498645638,
     47.08233255485692
    ],
    [
     -90.72365715673165,
     47.08256443341098
    ],
    [
     -90.72402730152345,
     47.082751747891145
    ],
    [
     -90.72439733373477,
     47.08294351964753
    ],
    [
     -90.72469612420812,
     47.083046079041466
    ],
    [
     -90.7249949188852,
     47.08314863784627
    ],
    [
     -90.72520894363107,
     47.08322439445699
    ],
    [
     -90.72550766872389,
     47.0833760550064
    ],
    [
     -90.72580195757685,
     47.08352759469744
    ],
    [
     -90.72621664497755,
     47.083670350306235
    ],
    [
     -90.72662694128027,
     47.08380852690468
    ],
    [
     -90.72680078860162,
     47.083853112861284
    ],
    [
     -90.72702376766408,
     47.08390667340332
    ],
    [
     -90.72715752706065,
     47.08393338687168
    ],
    [
     -90.72723779130044,
     47.08396014168796
    ],
    [
     -90.72748310348815,
     47.084040451556575
    ],
    [
     -90.72777733267942,
     47.08410284540412
    ],
    [
     -90.72807168707439,
     47.084160854910486
    ],
    [
     -90.7283660006758,
     47.084223246872696
    ],
    [
     -90.7286736229896,
     47.08424551350174
    ],
    [
     -90.72898136360047,
     47.084272310025845
    ],
    [
     -90.72928455320265,
     47.08429460317032
    ],
    [
     -90.72935144833588,
     47.08429462423702
    ],
    [
     -90.72959218361531,
     47.0843168673255
    ],
    [
     -90.72989992004374,
     47.08430354686878
    ],
    [
     -90.73020757865336,
     47.08429015179848
    ],
    [
     -90.7305152392038,
     47.0842767558943
    ],
    [
     -90.7307426626749,
     47.08424106367843
    ],
    [
     -90.73084075338596,
     47.08423665114515
    ],
    [
     -90.73113956113055,
     47.08418757827031
    ],
    [
     -90.73144273234888,
     47.08413855116737
    ],
    [
     -90.73174154229453,
     47.0840894767988
    ],
    [
     -90.7318841647638,
     47.084044888207806
    ],
    [
     -90.73205808485964,
     47.08401815151722
    ],
    [
     -90.73248174124174,
     47.08389325116499
    ],
    [
     -90.7329053222343,
     47.083768424307365
    ],
    [
     -90.73301231758629,
     47.0837193818683
    ],
    [
     -90.73331111444573,
     47.08363018979369
    ],
    [
     -90.73360987025791,
     47.0835454544633
    ],
    [
     -90.73399332917977,
     47.083371555368586
    ],
    [
     -90.73438130333797,
     47.083197626705385
    ],
    [
     -90.73446598237676,
     47.08315303459567
    ],
    [
     -90.73462209171578,
     47.083081689016275
    ],
    [
     -90.7349565041921,
     47.08286323415597
    ],
    [
     -90.7352909902132,
     47.08264470448121
    ],
    [
     -90.73556742955225,
     47.08239505017334
    ],
    [
     -90.73584390497224,
     47.08214086489636
    ],
    [
     -90.73605348908619,
     47.081859921271516
    ],
    [
     -90.73625859473324,
     47.08157455055187
    ],
    [
     -90.73631651289769,
     47.08144968230597
    ],
    [
     -90.73635219754597,
     47.08141402101676
    ],
    [
     -90.73656181480109,
     47.08112862330554
    ],
    [
     -90.73676694973041,
     47.08084771241193
    ],
    [
     -90.73684719810902,
     47.080673825505606
    ],
    [
     -90.73698988331323,
     47.08035721682423
    ],
    [
     -90.73713256585687,
     47.08004060993239
    ],
    [
     -90.73717714373765,
     47.07976415114159
    ],
    [
     -90.73720832972968,
     47.079674963999004
    ],
    [
     -90.73726187516999,
     47.07936279560509
    ],
    [
     -90.73731542141367,
     47.07905070336298
    ],
    [
     -90.73732878272021,
     47.07893474298924
    ],
    [
     -90.7373911767481,
     47.07879655606776
    ],
    [
     -90.7374447187512,
     47.07848439296475
    ],
    [
     -90.73749818178042,
     47.07817223224697
    ],
    [
     -90.73749817296482,
     47.078096469397785
    ],
    [
     -90.73747146646406,
     47.07777984911537
    ]
   ]
  ]
 }
}
