{
 "type": "Feature",
 "properties": {
  "name": "noca_comparison_box"
 },
 "geometry": {
  "type": "Polygon",
  "coordinates": [
   [
    [
     -121.15599553064854,
     48.819438431688425
    ],
    [
     -121.15599553064854,
     48.85049716487873
    ],
    [
     -121.22389341199325,
     48.85049716487873
    ],
    [
     -121.22389341199325,
     48.8055114767263
    ],
    [
     -121.17641885728689,
     48.805515670082265
    ],
    [
     -121.16132484887406,
     48.820035374008505
    ],
    [
     -121.15599553064854,
     48.819438431688425
    ]
   ]
  ]
 }
}
